[{"OBJECT_NAME":"MR-1","OBJECT_ID":"2026-015B","EPOCH":"2026-03-09T15:20:56.950656","MEAN_MOTION":13.52663769,"ECCENTRICITY":0.000405,"INCLINATION":88.9936,"RA_OF_ASC_NODE":278.6666,"ARG_OF_PERICENTER":35.3822,"MEAN_ANOMALY":324.7598,"EPHEMERIS_TYPE":0,"CLASSIFICATION_TYPE":"U","NORAD_CAT_ID":67557,"ELEMENT_SET_NO":999,"REV_AT_EPOCH":625,"BSTAR":7.6844e-5,"MEAN_MOTION_DOT":6.3e-7,"MEAN_MOTION_DDOT":0},{"OBJECT_NAME":"TRANSIT 18 DEB","OBJECT_ID":"1968-012F","EPOCH":"2026-03-09T14:31:16.256928","MEAN_MOTION":13.58878529,"ECCENTRICITY":0.0065238,"INCLINATION":90.018,"RA_OF_ASC_NODE":273.1878,"ARG_OF_PERICENTER":179.1722,"MEAN_ANOMALY":239.6848,"EPHEMERIS_TYPE":0,"CLASSIFICATION_TYPE":"U","NORAD_CAT_ID":35416,"ELEMENT_SET_NO":999,"REV_AT_EPOCH":84101,"BSTAR":0.0013358,"MEAN_MOTION_DOT":1.001e-5,"MEAN_MOTION_DDOT":0}]
